PERSEUS-M1              
1 40039U 14033AF  26165.82836626  .00001126  00000+0  10678-3 0  9992
2 40039  97.9643 109.9216 0010483 310.4650  49.5656 14.95625064650287
POLYITAN-1              
1 40042U 14033AJ  26166.02911136  .00017749  00000+0  55495-3 0  9993
2 40042  98.0936 192.0858 0008489 147.5892 212.5872 15.33192699653262
TIGRISAT                
1 40043U 14033AK  26165.95988893  .00002090  00000+0  24495-3 0  9998
2 40043  97.7826 316.0224 0050657  82.3480 278.3484 14.85155456645294
AEROCUBE 6A             
1 40045U 14033AM  26165.35185633  .00005921  00000+0  49753-3 0  9995
2 40045  97.7231 332.3304 0039141  27.6491 332.6801 14.98083113646196
AEROCUBE 6B             
1 40046U 14033AN  26166.22440987  .00004319  00000+0  35094-3 0  9992
2 40046  97.7236 332.9795 0038499  16.1182 344.1256 14.99553214646464
CANX-4                  
1 40055U 14034C   26166.12537820  .00000814  00000+0  11162-3 0  9991
2 40055  98.3125  41.3628 0013308  23.4565 336.7251 14.81261362644227
CANX-5                  
1 40056U 14034D   26166.12383536  .00000823  00000+0  11275-3 0  9990
2 40056  98.3127  41.4046 0013316  23.6241 336.5579 14.81278591635039
UKUBE-1                 
1 40074U 14037F   26165.98658431  .00007498  00000+0  42274-3 0  9993
2 40074  98.4228 169.0273 0002558 134.2881 225.8558 15.13524870648228
BRITE-PL2 (HEWELIUSZ)   
1 40119U 14049B   26166.29777390  .00001359  00000+0  13089-3 0  9999
2 40119  97.9096 278.2832 0015223 114.0820 246.1994 14.94587421641166
AEROCUBE 5C             
1 40965U 15058B   26165.68985843  .00002193  00000+0  20099-3 0  9991
2 40965  64.7679 270.3589 0130646  64.2448 297.2080 14.91443796365287
AEROCUBE 7              
1 40966U 15058C   26166.29507846  .00002709  00000+0  22393-3 0  9995
2 40966  64.7628 250.7425 0120408  62.4393 298.8892 14.95715259365678
FOX-1A (AO-85)          
1 40967U 15058D   26166.07201661  .00002230  00000+0  20683-3 0  9997
2 40967  64.7762 285.5569 0130328  57.4109 303.9507 14.90961275113256
SINOD-D 1               
1 40968U 15058E   26165.60471961  .00003177  00000+0  25974-3 0  9997
2 40968  64.7761 266.9995 0118880  54.1051 307.1029 14.95891927116272
SNAP-3 ALICE            
1 40970U 15058G   26166.25037528  .00095622  00000+0  11565-2 0  9995
2 40970  64.7500 110.6240 0028652  14.1529 346.0413 15.59675006116589
LMRST-SAT               
1 40971U 15058H   26165.75841261  .00002076  00000+0  19481-3 0  9994
2 40971  64.7767 282.8645 0131947  59.5717 301.8355 14.90580564113196
SNAP-3 EDDIE            
1 40972U 15058J   26166.17794588  .00103837  00000+0  11967-2 0  9998
2 40972  64.7430 101.6137 0028069  18.4611 341.7546 15.60917892118719
PROPCUBE 3              
1 40973U 15058K   26166.00074039  .00002604  00000+0  22255-3 0  9996
2 40973  64.7689 259.3669 0123935  60.7705 300.5735 14.94247503114472
BISONSAT                
1 40974U 15058L   26166.25226768  .00008916  00000+0  43463-3 0  9998
2 40974  64.7577 179.9008 0078857  48.0771 312.7041 15.16151459115326
SNAP-3 JIMI             
1 40975U 15058M   26166.25869303  .00003618  00000+0  25463-3 0  9991
2 40975  64.7641 225.8744 0106056  56.1610 304.9546 15.02283858113934
PROPCUBE 1 (FLORA)      
1 40976U 15058N   26166.11403432  .00002156  00000+0  20959-3 0  9995
2 40976  64.7756 301.6610 0130647  61.7296 299.6928 14.89214211115951
SINOD-D 3               
1 40977U 15058P   26166.03207246  .00002997  00000+0  25830-3 0  9998
2 40977  64.7737 282.5484 0119149  58.9833 302.2917 14.94004945114434
HORYU-4                 
1 41340U 16012D   26166.18510468  .00380379  50901-4  95954-3 0  9990
2 41340  30.9848  93.7180 0004979 258.8543 101.1559 15.94345425570497
RAVAN                   
1 41849U 16067B   26166.24139348  .00043365  00000+0  65707-3 0  9999
2 41849  97.9893  55.5895 0004713  37.6149 322.5432 15.54518227527392
CELTEE 1                
1 41850U 16067C   26166.16591096  .00004418  00000+0  21077-3 0  9992
2 41850  98.0674  32.5953 0000804 122.9897 237.1413 15.19664859525570
OPTICUBE 04             
1 41851U 16067D   26166.15701838  .00001705  00000+0  11006-3 0  9996
2 41851  98.0696  18.3349 0016822 121.9027 238.3840 15.09650711524866
AEROCUBE 8D             
1 41852U 16067E   26166.18633380  .00006285  00000+0  25987-3 0  9997
2 41852  98.0684  36.2057 0004583 128.1768 231.9881 15.24373380525766
AEROCUBE 8C             
1 41853U 16067F   26166.14601672  .00005881  00000+0  24155-3 0  9990
2 41853  98.0556  33.3928 0006686  74.6785 285.5189 15.24621420525756
CORVUS BC2              
1 42846U 17042X   26166.26838275  .00003574  00000+0  24685-3 0  9996
2 42846  97.4055 327.6924 0014206 116.6452 243.6232 15.06283921486778
CORVUS BC1              
1 42847U 17042Y   26165.99751830  .00003701  00000+0  25441-3 0  9990
2 42847  97.4090 328.2449 0013226  95.9669 264.3067 15.06453506486760
MAKERSAT 0              
1 43016U 17073D   26166.15522328  .00014625  00000+0  39907-3 0  9999
2 43016  97.4630  48.6587 0105182 280.3452  78.5946 15.32039776466158
